[{"OBJECT_NAME":"O3B FM5","OBJECT_ID":"2013-031A","EPOCH":"2026-03-04T02:20:32.968320","MEAN_MOTION":5.00116461,"ECCENTRICITY":0.0003337,"INCLINATION":0.0976,"RA_OF_ASC_NODE":14.1291,"ARG_OF_PERICENTER":319.9767,"MEAN_ANOMALY":25.8709,"EPHEMERIS_TYPE":0,"CLASSIFICATION_TYPE":"U","NORAD_CAT_ID":39188,"ELEMENT_SET_NO":999,"REV_AT_EPOCH":23177,"BSTAR":0,"MEAN_MOTION_DOT":-2.8e-7,"MEAN_MOTION_DDOT":0},{"OBJECT_NAME":"O3B FM4","OBJECT_ID":"2013-031B","EPOCH":"2026-03-03T19:36:26.511264","MEAN_MOTION":5.00115238,"ECCENTRICITY":0.0005037,"INCLINATION":0.0555,"RA_OF_ASC_NODE":345.1409,"ARG_OF_PERICENTER":5.4008,"MEAN_ANOMALY":9.4419,"EPHEMERIS_TYPE":0,"CLASSIFICATION_TYPE":"U","NORAD_CAT_ID":39189,"ELEMENT_SET_NO":999,"REV_AT_EPOCH":23177,"BSTAR":0,"MEAN_MOTION_DOT":-2.8e-7,"MEAN_MOTION_DDOT":0},{"OBJECT_NAME":"O3B FM2","OBJECT_ID":"2013-031C","EPOCH":"2026-03-04T01:58:52.315680","MEAN_MOTION":5.00115986,"ECCENTRICITY":0.0002839,"INCLINATION":0.0565,"RA_OF_ASC_NODE":339.0319,"ARG_OF_PERICENTER":0.926,"MEAN_ANOMALY":20.0242,"EPHEMERIS_TYPE":0,"CLASSIFICATION_TYPE":"U","NORAD_CAT_ID":39190,"ELEMENT_SET_NO":999,"REV_AT_EPOCH":23185,"BSTAR":0,"MEAN_MOTION_DOT":-2.8e-7,"MEAN_MOTION_DDOT":0},{"OBJECT_NAME":"O3B PFM","OBJECT_ID":"2013-031D","EPOCH":"2026-03-03T07:07:49.413216","MEAN_MOTION":5.00116017,"ECCENTRICITY":0.00051075,"INCLINATION":0.0664,"RA_OF_ASC_NODE":7.6623,"ARG_OF_PERICENTER":349.0732,"MEAN_ANOMALY":3.2541,"EPHEMERIS_TYPE":0,"CLASSIFICATION_TYPE":"U","NORAD_CAT_ID":39191,"ELEMENT_SET_NO":999,"REV_AT_EPOCH":23137,"BSTAR":0,"MEAN_MOTION_DOT":-2.8e-7,"MEAN_MOTION_DDOT":0},{"OBJECT_NAME":"O3B FM3","OBJECT_ID":"2014-038A","EPOCH":"2026-03-03T23:07:17.340960","MEAN_MOTION":5.00115554,"ECCENTRICITY":5.45e-5,"INCLINATION":0.053,"RA_OF_ASC_NODE":353.4529,"ARG_OF_PERICENTER":51.572,"MEAN_ANOMALY":314.9728,"EPHEMERIS_TYPE":0,"CLASSIFICATION_TYPE":"U","NORAD_CAT_ID":40079,"ELEMENT_SET_NO":999,"REV_AT_EPOCH":20778,"BSTAR":0,"MEAN_MOTION_DOT":-2.8e-7,"MEAN_MOTION_DDOT":0},{"OBJECT_NAME":"O3B FM7","OBJECT_ID":"2014-038B","EPOCH":"2026-03-02T07:26:54.646080","MEAN_MOTION":5.00115622,"ECCENTRICITY":0.00044887,"INCLINATION":0.0588,"RA_OF_ASC_NODE":348.9474,"ARG_OF_PERICENTER":339.4059,"MEAN_ANOMALY":31.6123,"EPHEMERIS_TYPE":0,"CLASSIFICATION_TYPE":"U","NORAD_CAT_ID":40080,"ELEMENT_SET_NO":999,"REV_AT_EPOCH":21253,"BSTAR":0,"MEAN_MOTION_DOT":-2.9e-7,"MEAN_MOTION_DDOT":0},{"OBJECT_NAME":"O3B FM6","OBJECT_ID":"2014-038C","EPOCH":"2026-02-28T08:07:22.842912","MEAN_MOTION":5.00115665,"ECCENTRICITY":0.00026722,"INCLINATION":0.055,"RA_OF_ASC_NODE":351.2998,"ARG_OF_PERICENTER":345.9055,"MEAN_ANOMALY":22.7755,"EPHEMERIS_TYPE":0,"CLASSIFICATION_TYPE":"U","NORAD_CAT_ID":40081,"ELEMENT_SET_NO":999,"REV_AT_EPOCH":21238,"BSTAR":0,"MEAN_MOTION_DOT":-2.8e-7,"MEAN_MOTION_DDOT":0},{"OBJECT_NAME":"O3B FM8","OBJECT_ID":"2014-038D","EPOCH":"2026-03-03T14:09:38.280960","MEAN_MOTION":5.00115992,"ECCENTRICITY":0.0002659,"INCLINATION":0.0559,"RA_OF_ASC_NODE":350.7342,"ARG_OF_PERICENTER":353.8071,"MEAN_ANOMALY":15.4437,"EPHEMERIS_TYPE":0,"CLASSIFICATION_TYPE":"U","NORAD_CAT_ID":40082,"ELEMENT_SET_NO":999,"REV_AT_EPOCH":21266,"BSTAR":0,"MEAN_MOTION_DOT":-2.8e-7,"MEAN_MOTION_DDOT":0},{"OBJECT_NAME":"O3B FM10","OBJECT_ID":"2014-083A","EPOCH":"2026-03-03T19:36:26.461152","MEAN_MOTION":5.00115218,"ECCENTRICITY":0.0002687,"INCLINATION":0.0434,"RA_OF_ASC_NODE":347.2947,"ARG_OF_PERICENTER":353.8137,"MEAN_ANOMALY":18.8747,"EPHEMERIS_TYPE":0,"CLASSIFICATION_TYPE":"U","NORAD_CAT_ID":40348,"ELEMENT_SET_NO":999,"REV_AT_EPOCH":20462,"BSTAR":0,"MEAN_MOTION_DOT":-2.8e-7,"MEAN_MOTION_DDOT":0},{"OBJECT_NAME":"O3B FM11","OBJECT_ID":"2014-083B","EPOCH":"2026-03-03T19:54:45.737856","MEAN_MOTION":5.00115587,"ECCENTRICITY":0.0003137,"INCLINATION":0.0566,"RA_OF_ASC_NODE":0.5177,"ARG_OF_PERICENTER":331.0616,"MEAN_ANOMALY":28.3969,"EPHEMERIS_TYPE":0,"CLASSIFICATION_TYPE":"U","NORAD_CAT_ID":40349,"ELEMENT_SET_NO":999,"REV_AT_EPOCH":20464,"BSTAR":0,"MEAN_MOTION_DOT":-2.8e-7,"MEAN_MOTION_DDOT":0},{"OBJECT_NAME":"O3B FM12","OBJECT_ID":"2014-083C","EPOCH":"2026-03-03T10:58:05.766816","MEAN_MOTION":5.00115945,"ECCENTRICITY":0.00026432,"INCLINATION":0.056,"RA_OF_ASC_NODE":359.7796,"ARG_OF_PERICENTER":337.6957,"MEAN_ANOMALY":22.5061,"EPHEMERIS_TYPE":0,"CLASSIFICATION_TYPE":"U","NORAD_CAT_ID":40350,"ELEMENT_SET_NO":999,"REV_AT_EPOCH":20463,"BSTAR":0,"MEAN_MOTION_DOT":-2.8e-7,"MEAN_MOTION_DDOT":0},{"OBJECT_NAME":"O3B FM9","OBJECT_ID":"2014-083D","EPOCH":"2026-03-04T02:00:15.414336","MEAN_MOTION":5.00115903,"ECCENTRICITY":0.0002736,"INCLINATION":0.0577,"RA_OF_ASC_NODE":0.7662,"ARG_OF_PERICENTER":340.8313,"MEAN_ANOMALY":18.3859,"EPHEMERIS_TYPE":0,"CLASSIFICATION_TYPE":"U","NORAD_CAT_ID":40351,"ELEMENT_SET_NO":999,"REV_AT_EPOCH":20481,"BSTAR":0,"MEAN_MOTION_DOT":-2.8e-7,"MEAN_MOTION_DDOT":0},{"OBJECT_NAME":"LEO 1 (LEO VANTAGE 1)","OBJECT_ID":"2018-004C","EPOCH":"2026-03-04T04:22:39.365184","MEAN_MOTION":14.67120416,"ECCENTRICITY":0.0353364,"INCLINATION":99.2486,"RA_OF_ASC_NODE":327.7875,"ARG_OF_PERICENTER":41.758,"MEAN_ANOMALY":321.0018,"EPHEMERIS_TYPE":0,"CLASSIFICATION_TYPE":"U","NORAD_CAT_ID":43113,"ELEMENT_SET_NO":999,"REV_AT_EPOCH":42208,"BSTAR":0.00043384,"MEAN_MOTION_DOT":6.268e-5,"MEAN_MOTION_DDOT":0},{"OBJECT_NAME":"O3B FM15","OBJECT_ID":"2018-024A","EPOCH":"2026-03-03T22:48:33.166368","MEAN_MOTION":5.00115661,"ECCENTRICITY":0.0002703,"INCLINATION":0.0484,"RA_OF_ASC_NODE":0.7666,"ARG_OF_PERICENTER":337.689,"MEAN_ANOMALY":21.5262,"EPHEMERIS_TYPE":0,"CLASSIFICATION_TYPE":"U","NORAD_CAT_ID":43231,"ELEMENT_SET_NO":999,"REV_AT_EPOCH":14576,"BSTAR":0,"MEAN_MOTION_DOT":-2.8e-7,"MEAN_MOTION_DDOT":0},{"OBJECT_NAME":"O3B FM16","OBJECT_ID":"2018-024B","EPOCH":"2026-02-28T19:18:29.707200","MEAN_MOTION":5.00115846,"ECCENTRICITY":0.0002785,"INCLINATION":0.0446,"RA_OF_ASC_NODE":2.3185,"ARG_OF_PERICENTER":333.1821,"MEAN_ANOMALY":24.4786,"EPHEMERIS_TYPE":0,"CLASSIFICATION_TYPE":"U","NORAD_CAT_ID":43232,"ELEMENT_SET_NO":999,"REV_AT_EPOCH":14552,"BSTAR":0,"MEAN_MOTION_DOT":-2.8e-7,"MEAN_MOTION_DDOT":0},{"OBJECT_NAME":"O3B FM14","OBJECT_ID":"2018-024C","EPOCH":"2026-03-04T01:02:39.479136","MEAN_MOTION":5.00115627,"ECCENTRICITY":0.0002847,"INCLINATION":0.0433,"RA_OF_ASC_NODE":1.5385,"ARG_OF_PERICENTER":342.0948,"MEAN_ANOMALY":16.3508,"EPHEMERIS_TYPE":0,"CLASSIFICATION_TYPE":"U","NORAD_CAT_ID":43233,"ELEMENT_SET_NO":999,"REV_AT_EPOCH":14569,"BSTAR":0,"MEAN_MOTION_DOT":-2.8e-7,"MEAN_MOTION_DDOT":0},{"OBJECT_NAME":"O3B FM13","OBJECT_ID":"2018-024D","EPOCH":"2026-03-03T02:38:16.342368","MEAN_MOTION":5.00115687,"ECCENTRICITY":0.00042952,"INCLINATION":0.0485,"RA_OF_ASC_NODE":331.6373,"ARG_OF_PERICENTER":331.6147,"MEAN_ANOMALY":56.6997,"EPHEMERIS_TYPE":0,"CLASSIFICATION_TYPE":"U","NORAD_CAT_ID":43234,"ELEMENT_SET_NO":999,"REV_AT_EPOCH":14574,"BSTAR":0,"MEAN_MOTION_DOT":-2.8e-7,"MEAN_MOTION_DDOT":0}]
